XRISM                   
1 57800U 23137A   24239.82010968  .00008992  00000+0  65809-3 0  9998
2 57800  31.0030 282.6851 0009896 188.0874 171.9603 15.02282634 53232
